MEAN_MOTION;ECCENTRICITY;INCLINATION;RA_OF_ASC_NODE;ARG_OF_PERICENTER;MEAN_ANOMALY;BSTAR;MEAN_MOTION_DOT;MEAN_MOTION_DDOT;TYPE
1.00271554;1.55E-5;1.6639;89.3276;179.3098;354.4846;0;-1.51E-6;0;Intelsat
1.00271456;1.6E-5;1.6662;89.3182;178.6537;352.7088;0;-1.55E-6;0;Intelsat
1.00271448;1.59E-5;1.6663;89.3175;180.0117;17.2684;0;-1.55E-6;0;Intelsat
1.00271368;1.66E-5;1.6685;89.3081;180.0745;352.4481;0;-1.58E-6;0;Intelsat
1.0027136;1.65E-5;1.6687;89.3074;180.9047;19.1899;0;-1.58E-6;0;Intelsat
1.00271294;1.72E-5;1.6704;89.3001;177.8396;291.3126;0;-1.6E-6;0;Intelsat
1.00271272;1.75E-5;1.6709;89.2982;180.3753;356.6128;0;-1.6E-6;0;Intelsat
1.00271264;1.74E-5;1.671;89.2978;181.1787;21.7076;0;-1.61E-6;0;Intelsat
1.002712;1.82E-5;1.6728;89.2893;179.0553;288.7996;0;-1.62E-6;0;Intelsat
1.00271124;1.87E-5;1.6749;89.2829;180.2556;232.7726;0;-1.62E-6;0;Intelsat
1.00271107;1.94E-5;1.6754;89.2812;180.5307;303.501;0;-1.63E-6;0;Intelsat
1.00271905;3.9E-5;1.6788;89.2997;175.9779;213.9198;0;-1.62E-6;0;Intelsat
1.00271938;4.06E-5;1.68;89.2956;180.8809;30.4104;0;-1.62E-6;0;Intelsat
1.00271962;4.03E-5;1.6813;89.2921;181.6611;236.9499;0;-1.62E-6;0;Intelsat
1.00271943;4.21E-5;1.6824;89.2895;181.5668;32.5353;0;-1.61E-6;0;Intelsat
1.00271988;4.27E-5;1.6848;89.2807;182.7477;34.1813;0;-1.6E-6;0;Intelsat
1.00272769;4.91E-5;1.6864;89.2807;195.6816;228.5661;0;-1.59E-6;0;Intelsat
1.00272484;4.97E-5;1.6874;89.2805;197.3902;356.4432;0;-1.59E-6;0;Intelsat
1.002725;5.11E-5;1.6896;89.2735;199.016;331.701;0;-1.58E-6;0;Intelsat
1.00272537;5.02E-5;1.692;89.2676;199.2452;334.2958;0;-1.57E-6;0;Intelsat
1.00272539;5.13E-5;1.6923;89.2664;199.4244;25.9356;0;-1.58E-6;0;Intelsat
1.00272649;5.1E-5;1.6939;89.2639;199.8937;233.7438;0;-1.57E-6;0;Intelsat
1.00272611;4.97E-5;1.6949;89.2628;200.1835;2.093;0;-1.57E-6;0;Intelsat
1.00272219;5.32E-5;1.6969;89.2665;215.0737;220.4273;0;-1.56E-6;0;Intelsat
1.00273362;6.0E-5;1.698;89.2626;212.0751;18.8866;0;-1.56E-6;0;Intelsat
1.00273368;6.04E-5;1.6985;89.2601;212.3355;96.3723;0;-1.55E-6;0;Intelsat
1.0027324;6.08E-5;1.6993;89.2567;212.1804;217.4299;0;-1.55E-6;0;Intelsat
1.00273128;6.09E-5;1.7003;89.2539;213.1726;354.6884;0;-1.55E-6;0;Intelsat
1.00273115;6.25E-5;1.7019;89.245;213.9647;227.1285;0;-1.53E-6;0;Intelsat
1.00273039;6.23E-5;1.7028;89.2427;214.7518;355.9335;0;-1.53E-6;0;Intelsat
1.00273024;6.43E-5;1.7044;89.2359;215.6481;228.2684;0;-1.52E-6;0;Intelsat
1.00272946;6.4E-5;1.7053;89.2339;218.747;354.7505;0;-1.51E-6;0;Intelsat
1.00272865;6.48E-5;1.7077;89.2249;220.1954;330.1992;0;-1.49E-6;0;Intelsat
1.00272863;6.46E-5;1.7078;89.224;220.239;356.0738;0;-1.49E-6;0;Intelsat
1.00272749;7.06E-5;1.711;89.2159;221.8067;357.3092;0;-1.47E-6;0;Intelsat
1.00271971;6.01E-5;1.7134;89.2241;224.9812;313.3916;0;-1.44E-6;0;Intelsat
1.002714;5.52E-5;1.7137;89.2208;228.2518;353.647;0;-1.44E-6;0;Intelsat
1.00270678;3.66E-5;1.716;89.2128;208.5258;324.3777;0;-1.42E-6;0;Intelsat
1.00270735;3.58E-5;1.7163;89.2115;207.1368;17.5703;0;-1.42E-6;0;Intelsat
1.00270658;3.11E-5;1.718;89.2043;210.411;247.5537;0;-1.41E-6;0;Intelsat
1.00270621;2.77E-5;1.7187;89.2038;212.6236;348.9764;0;-1.4E-6;0;Intelsat
1.00270647;2.75E-5;1.7189;89.203;211.266;16.2584;0;-1.4E-6;0;Intelsat
1.00270571;5.03E-5;1.7211;89.1985;225.5917;237.0055;0;-1.4E-6;0;Intelsat
1.00270634;4.72E-5;1.7218;89.1988;224.4159;340.01;0;-1.39E-6;0;Intelsat
1.0027065;4.49E-5;1.7244;89.1936;225.3853;341.8401;0;-1.39E-6;0;Intelsat
1.00270633;4.24E-5;1.727;89.189;226.4503;343.5745;0;-1.39E-6;0;Intelsat
1.00271628;2.59E-5;1.7306;89.1702;227.2136;11.5467;0;-1.41E-6;0;Intelsat
1.00271554;2.49E-5;1.7311;89.1683;225.8233;90.6937;0;-1.41E-6;0;Intelsat
1.00271595;2.38E-5;1.7328;89.165;225.3191;350.3273;0;-1.43E-6;0;Intelsat
1.00271534;2.25E-5;1.7339;89.1622;222.7899;160.3921;0;-1.44E-6;0;Intelsat
1.00271569;2.22E-5;1.7352;89.1586;221.9155;330.6384;0;-1.46E-6;0;Intelsat
1.00271505;1.81E-5;1.7369;89.154;215.5881;236.102;0;-1.48E-6;0;Intelsat
1.00271511;1.83E-5;1.7378;89.1529;214.5193;6.756;0;-1.5E-6;0;Intelsat
1.00271461;1.6E-5;1.7394;89.1459;209.9827;244.5202;0;-1.51E-6;0;Intelsat
1.00271621;1.85E-5;1.7412;89.1563;200.8585;23.1929;0;-1.53E-6;0;Intelsat
1.00271544;1.89E-5;1.7428;89.1502;188.7405;278.7727;0;-1.54E-6;0;Intelsat
1.00271556;1.88E-5;1.7437;89.1502;189.174;37.7;0;-1.55E-6;0;Intelsat
1.0027153;1.72E-5;1.7453;89.1432;176.5668;294.2522;0;-1.56E-6;0;Intelsat
1.00271575;1.65E-5;1.7462;89.143;172.6505;57.0428;0;-1.57E-6;0;Intelsat
1.00271907;2.81E-5;1.7499;89.1378;119.077;113.4137;0;-1.57E-6;0;Intelsat
1.00271761;1.14E-5;1.7522;89.1332;139.3505;95.9349;0;-1.57E-6;0;Intelsat
1.00271751;1.09E-5;1.7541;89.1308;146.1887;43.2783;0;-1.57E-6;0;Intelsat
1.00271739;1.08E-5;1.7544;89.1305;147.5303;90.5645;0;-1.57E-6;0;Intelsat
1.00271731;1.08E-5;1.7565;89.1286;148.5066;92.3971;0;-1.56E-6;0;Intelsat
1.00271717;1.07E-5;1.7572;89.1272;155.4748;189.0982;0;-1.55E-6;0;Intelsat
1.00271732;1.04E-5;1.7586;89.1277;144.5385;73.252;0;-1.55E-6;0;Intelsat
1.0027173;9.9E-6;1.7602;89.1247;170.0142;304.3483;0;-1.54E-6;0;Intelsat
1.00272968;9.9E-6;1.7605;89.1461;190.2844;56.2219;0;-1.53E-6;0;Intelsat
1.00272152;7.9E-6;1.7624;89.143;165.625;31.8537;0;-1.53E-6;0;Intelsat
1.00272165;7.8E-6;1.7626;89.1429;167.1594;56.2366;0;-1.53E-6;0;Intelsat
1.00272192;7.9E-6;1.7642;89.1407;213.6409;282.5912;0;-1.52E-6;0;Intelsat
1.00272195;7.8E-6;1.7646;89.1416;215.0135;349.9053;0;-1.52E-6;0;Intelsat
1.002722;8.2E-6;1.7648;89.1414;216.3744;9.8297;0;-1.52E-6;0;Intelsat
1.00272177;8.2E-6;1.7665;89.1391;223.2109;288.0749;0;-1.51E-6;0;Intelsat
1.00272187;9.0E-6;1.7669;89.1396;226.5676;2.4288;0;-1.51E-6;0;Intelsat
1.00272186;9.4E-6;1.7671;89.139;226.5677;28.3463;0;-1.51E-6;0;Intelsat
1.00272174;9.5E-6;1.7685;89.1373;233.3849;246.8433;0;-1.5E-6;0;Intelsat
1.00272169;9.0E-6;1.7693;89.137;236.1728;21.5393;0;-1.5E-6;0;Intelsat
1.00272152;9.4E-6;1.7698;89.1357;236.207;99.2768;0;-1.49E-6;0;Intelsat
1.00272125;6.9E-6;1.7714;89.1337;251.5882;343.0372;0;-1.48E-6;0;Intelsat
1.00272103;7.6E-6;1.772;89.1319;250.0079;88.2561;0;-1.48E-6;0;Intelsat
1.00272062;5.9E-6;1.7736;89.13;275.9344;321.4842;0;-1.47E-6;0;Intelsat
1.0027204;6.3E-6;1.7743;89.1282;272.7429;68.3457;0;-1.46E-6;0;Intelsat
1.00271992;6.7E-6;1.7758;89.127;337.0253;263.1945;0;-1.44E-6;0;Intelsat
1.00271938;8.4E-6;1.7774;89.1236;341.5388;150.6701;0;-1.43E-6;0;Intelsat
1.0027192;9.6E-6;1.778;89.1232;350.3554;252.6718;0;-1.42E-6;0;Intelsat
1.00271863;1.15E-5;1.7796;89.1195;352.3979;141.7434;0;-1.4E-6;0;Intelsat
1.00271841;1.3E-5;1.7804;89.1186;359.0866;264.903;0;-1.39E-6;0;Intelsat
1.00271772;1.61E-5;1.7823;89.1163;3.0011;219.6835;0;-1.37E-6;0;Intelsat
1.00271767;1.63E-5;1.7825;89.1156;3.8733;244.729;0;-1.37E-6;0;Intelsat
1.00271716;1.81E-5;1.784;89.1122;4.8454;123.8133;0;-1.35E-6;0;Intelsat
1.00271698;1.95E-5;1.7846;89.1125;6.798;218.6999;0;-1.35E-6;0;Intelsat
1.00271694;1.97E-5;1.7848;89.1118;7.3997;244.0159;0;-1.35E-6;0;Intelsat
1.00271662;2.3E-5;1.7862;89.1115;14.3162;110.3205;0;-1.34E-6;0;Intelsat
1.00271643;2.44E-5;1.7868;89.1116;14.9801;213.3017;0;-1.33E-6;0;Intelsat
1.0027164;2.43E-5;1.787;89.1109;14.7141;239.4853;0;-1.33E-6;0;Intelsat
1.00271598;2.53E-5;1.7884;89.1081;14.0678;106.9713;0;-1.32E-6;0;Intelsat
1.00271583;2.66E-5;1.7889;89.1089;14.5796;184.1705;0;-1.32E-6;0;Intelsat
1.00271559;2.51E-5;1.79;89.1067;11.8436;348.8279;0;-1.32E-6;0;Intelsat
1.00271533;1.83E-5;1.7914;89.1053;357.8833;236.0208;0;-1.32E-6;0;Intelsat
1.00271494;1.91E-5;1.793;89.1044;1.6648;130.9802;0;-1.33E-6;0;Intelsat
1.00271713;2.42E-5;1.7959;89.1354;7.6068;231.8678;0;-1.35E-6;0;Intelsat
1.00271663;2.56E-5;1.799;89.1303;11.4391;7.7494;0;-1.39E-6;0;Intelsat
1.0027163;2.55E-5;1.8001;89.1311;10.8576;171.9915;0;-1.41E-6;0;Intelsat
1.00271584;2.56E-5;1.802;89.1259;13.0526;125.545;0;-1.44E-6;0;Intelsat
1.0027156;2.76E-5;1.8027;89.1268;15.9611;231.8963;0;-1.45E-6;0;Intelsat
1.00271539;2.41E-5;1.8043;89.1228;11.6909;125.6038;0;-1.47E-6;0;Intelsat
1.00271536;2.36E-5;1.8048;89.1233;10.3181;214.4263;0;-1.47E-6;0;Intelsat
1.0027153;2.38E-5;1.805;89.1226;10.2853;240.3767;0;-1.47E-6;0;Intelsat
1.00271501;1.91E-5;1.8066;89.1202;10.162;130.5366;0;-1.49E-6;0;Intelsat
1.00271488;1.83E-5;1.8073;89.1201;9.7211;243.7596;0;-1.49E-6;0;Intelsat
1.00271486;1.71E-5;1.8075;89.1195;9.5725;269.8259;0;-1.49E-6;0;Intelsat
1.00271432;1.58E-5;1.8096;89.1168;15.09;241.1907;0;-1.51E-6;0;Intelsat
1.0027139;2.09E-5;1.8105;89.1153;28.1156;12.439;0;-1.51E-6;0;Intelsat
1.00271391;1.65E-5;1.8119;89.118;28.4237;230.6637;0;-1.51E-6;0;Intelsat
1.00271359;1.69E-5;1.8128;89.1165;30.361;11.2461;0;-1.51E-6;0;Intelsat
1.00271446;1.17E-5;1.8141;89.1246;9.2252;226.7216;0;-1.51E-6;0;Intelsat
1.00271411;1.15E-5;1.8151;89.1233;7.868;34.9267;0;-1.5E-6;0;Intelsat
1.00271385;1.01E-5;1.8165;89.1211;3.2225;261.4494;0;-1.5E-6;0;Intelsat
1.00271551;7.8E-6;1.8177;89.1319;340.7369;105.3415;0;-1.49E-6;0;Intelsat
1.00271528;6.8E-6;1.8188;89.1306;333.9918;293.4679;0;-1.49E-6;0;Intelsat
1.00271513;7.3E-6;1.8201;89.1291;328.838;145.947;0;-1.48E-6;0;Intelsat
1.00271509;6.2E-6;1.8211;89.1305;324.7074;305.5456;0;-1.48E-6;0;Intelsat
1.00271485;7.1E-6;1.8224;89.1288;318.4017;163.609;0;-1.48E-6;0;Intelsat
1.00271481;6.7E-6;1.8232;89.13;308.6084;298.5356;0;-1.48E-6;0;Intelsat
1.0027152;9.2E-6;1.825;89.1312;310.1511;221.1897;0;-1.47E-6;0;Intelsat
1.00271518;9.1E-6;1.8253;89.1329;307.3085;278.7144;0;-1.47E-6;0;Intelsat
1.00271522;8.7E-6;1.8254;89.1326;301.7815;308.1571;0;-1.47E-6;0;Intelsat
1.00271666;1.08E-5;1.8277;89.1372;291.3435;321.4011;0;-1.46E-6;0;Intelsat
1.00271666;1.08E-5;1.8277;89.1372;291.3435;321.4011;0;-1.46E-6;0;Intelsat
1.00271642;1.12E-5;1.8293;89.1346;302.3309;205.0762;0;-1.46E-6;0;Intelsat
1.00271626;1.03E-5;1.8299;89.1348;303.3771;312.1584;0;-1.45E-6;0;Intelsat
1.00271626;1.31E-5;1.8306;89.1336;289.4626;69.7422;0;-1.45E-6;0;Intelsat
1.0027168;1.4E-5;1.8321;89.1352;290.9332;327.4068;0;-1.44E-6;0;Intelsat
1.00271663;1.43E-5;1.8328;89.134;287.8982;74.1109;0;-1.44E-6;0;Intelsat
1.00271658;1.55E-5;1.8337;89.1327;293.9208;217.8075;0;-1.43E-6;0;Intelsat
